*******************************************************************************
Ephemeris / WWW_USER Mon Jul 15 19:23:51 2024 Pasadena, USA      / Horizons    
*******************************************************************************
Target body name: (2018 RB1)                      {source: JPL#5}
Center body name: Earth (399)                     {source: DE441}
Center-site name: Gemini South Obs., Cerro Pachon
*******************************************************************************
Start time      : A.D. 2018-Dec-03 23:41:00.0000 UT      
Stop  time      : A.D. 2018-Dec-04 09:24:00.0000 UT      
Step-size       : 1 minutes
*******************************************************************************
Target pole/equ : undefined
Target radii    : undefined                                                    
Center geodetic : 289.2634, -30.2406227, 2.71233  {E-lon(deg),Lat(deg),Alt(km)}
Center cylindric: 289.2634,5517.21435,-3194.81213 {E-lon(deg),Dxy(km),Dz(km)}
Center pole/equ : ITRF93                          {East-longitude positive}
Center radii    : 6378.137, 6378.137, 6356.752 km {Equator_a, b, pole_c}       
Target primary  : Sun
Vis. interferer : MOON (R_eq= 1737.400) km        {source: DE441}
Rel. light bend : Sun                             {source: DE441}
Rel. lght bnd GM: 1.3271E+11 km^3/s^2                                          
Small-body perts: Yes                             {source: SB441-N16}
Atmos refraction: NO (AIRLESS)
RA format       : HMS
Time format     : CAL 
Calendar mode   : Mixed Julian/Gregorian
RTS-only print  : NO       
EOP file        : eop.240715.p241008                                           
EOP coverage    : DATA-BASED 1962-JAN-20 TO 2024-JUL-15. PREDICTS-> 2024-OCT-07
Units conversion: 1 au= 149597870.700 km, c= 299792.458 km/s, 1 day= 86400.0 s 
Table cut-offs 1: Elevation (-90.0deg=NO ),Airmass (>38.000=NO), Daylight (YES)
Table cut-offs 2: Solar elongation (  0.0,180.0=NO ),Local Hour Angle( 0.0=NO )
Table cut-offs 3: RA/DEC angular rate (     0.0=NO )                           
*******************************************************************************
Initial IAU76/J2000 heliocentric ecliptic osculating elements (au, days, deg.):
  EPOCH=  2458368.5 ! 2018-Sep-07.00 (TDB)         Residual RMS= .299          
   EC= .2816093255492492   QR= .7991213126369837   TP= 2458438.7854507864      
   OM= 166.9631715555783   W=  267.8210074013559   IN= 5.127543488636634       
  Equivalent ICRF heliocentric cartesian coordinates (au, au/d):
   X= 9.883258176612897E-01  Y=-2.654573099408967E-01  Z=-1.095366816313374E-01
  VX= 1.112505236628486E-04 VY= 1.667631342697191E-02 VZ= 5.559084906068471E-03
Asteroid physical parameters (km, seconds, rotational period in hours):        
   GM= n.a.                RAD= n.a.               ROTPER= n.a.                
   H= 27.9                 G= .150                 B-V= n.a.                   
                           ALBEDO= n.a.            STYP= n.a.                  
*******************************************************************************
 Date__(UT)__HR:MN     R.A._________(ICRF)_________DEC
******************************************************
$$SOE
 2018-Dec-04 01:44     12 44 08.617960 -12 54 41.19476
 2018-Dec-04 01:45     12 44 08.740770 -12 54 41.49759
 2018-Dec-04 01:46     12 44 08.863574 -12 54 41.80047
 2018-Dec-04 01:47     12 44 08.986373 -12 54 42.10343
 2018-Dec-04 01:48     12 44 09.109166 -12 54 42.40644
 2018-Dec-04 01:49     12 44 09.231954 -12 54 42.70952
 2018-Dec-04 01:50     12 44 09.354735 -12 54 43.01267
 2018-Dec-04 01:51     12 44 09.477511 -12 54 43.31588
 2018-Dec-04 01:52     12 44 09.600280 -12 54 43.61915
 2018-Dec-04 01:53     12 44 09.723044 -12 54 43.92249
 2018-Dec-04 01:54     12 44 09.845801 -12 54 44.22589
 2018-Dec-04 01:55     12 44 09.968552 -12 54 44.52936
 2018-Dec-04 01:56     12 44 10.091297 -12 54 44.83289
 2018-Dec-04 01:57     12 44 10.214035 -12 54 45.13648
 2018-Dec-04 01:58     12 44 10.336767 -12 54 45.44014
 2018-Dec-04 01:59     12 44 10.459492 -12 54 45.74386
 2018-Dec-04 02:00     12 44 10.582211 -12 54 46.04765
 2018-Dec-04 02:01     12 44 10.704922 -12 54 46.35150
 2018-Dec-04 02:02     12 44 10.827627 -12 54 46.65541
 2018-Dec-04 02:03     12 44 10.950325 -12 54 46.95938
 2018-Dec-04 02:04     12 44 11.073016 -12 54 47.26342
 2018-Dec-04 02:05     12 44 11.195700 -12 54 47.56752
 2018-Dec-04 02:06     12 44 11.318377 -12 54 47.87168
 2018-Dec-04 02:07     12 44 11.441047 -12 54 48.17591
 2018-Dec-04 02:08     12 44 11.563709 -12 54 48.48020
 2018-Dec-04 02:09     12 44 11.686364 -12 54 48.78455
 2018-Dec-04 02:10     12 44 11.809012 -12 54 49.08896
 2018-Dec-04 02:11     12 44 11.931651 -12 54 49.39344
 2018-Dec-04 02:12     12 44 12.054284 -12 54 49.69798
 2018-Dec-04 02:13     12 44 12.176908 -12 54 50.00258
 2018-Dec-04 02:14     12 44 12.299525 -12 54 50.30724
 2018-Dec-04 02:15     12 44 12.422134 -12 54 50.61196
 2018-Dec-04 02:16     12 44 12.544735 -12 54 50.91675
 2018-Dec-04 02:17     12 44 12.667328 -12 54 51.22160
 2018-Dec-04 02:18     12 44 12.789913 -12 54 51.52651
 2018-Dec-04 02:19     12 44 12.912490 -12 54 51.83148
 2018-Dec-04 02:20     12 44 13.035058 -12 54 52.13651
 2018-Dec-04 02:21     12 44 13.157618 -12 54 52.44160
 2018-Dec-04 02:22     12 44 13.280170 -12 54 52.74675
 2018-Dec-04 02:23     12 44 13.402713 -12 54 53.05197
 2018-Dec-04 02:24     12 44 13.525248 -12 54 53.35724
 2018-Dec-04 02:25     12 44 13.647774 -12 54 53.66258
 2018-Dec-04 02:26     12 44 13.770292 -12 54 53.96798
 2018-Dec-04 02:27     12 44 13.892800 -12 54 54.27343
 2018-Dec-04 02:28     12 44 14.015300 -12 54 54.57895
 2018-Dec-04 02:29     12 44 14.137791 -12 54 54.88453
 2018-Dec-04 02:30     12 44 14.260272 -12 54 55.19017
 2018-Dec-04 02:31     12 44 14.382745 -12 54 55.49586
 2018-Dec-04 02:32     12 44 14.505209 -12 54 55.80162
 2018-Dec-04 02:33     12 44 14.627663 -12 54 56.10743
 2018-Dec-04 02:34     12 44 14.750108 -12 54 56.41331
 2018-Dec-04 02:35     12 44 14.872543 -12 54 56.71924
 2018-Dec-04 02:36     12 44 14.994969 -12 54 57.02524
 2018-Dec-04 02:37     12 44 15.117386 -12 54 57.33129
 2018-Dec-04 02:38     12 44 15.239793 -12 54 57.63740
 2018-Dec-04 02:39     12 44 15.362190 -12 54 57.94357
 2018-Dec-04 02:40     12 44 15.484578 -12 54 58.24980
 2018-Dec-04 02:41     12 44 15.606955 -12 54 58.55609
 2018-Dec-04 02:42     12 44 15.729323 -12 54 58.86244
 2018-Dec-04 02:43     12 44 15.851681 -12 54 59.16884
 2018-Dec-04 02:44     12 44 15.974028 -12 54 59.47530
 2018-Dec-04 02:45     12 44 16.096366 -12 54 59.78182
 2018-Dec-04 02:46     12 44 16.218693 -12 55 00.08840
 2018-Dec-04 02:47     12 44 16.341010 -12 55 00.39503
 2018-Dec-04 02:48     12 44 16.463317 -12 55 00.70172
 2018-Dec-04 02:49     12 44 16.585613 -12 55 01.00847
 2018-Dec-04 02:50     12 44 16.707899 -12 55 01.31528
 2018-Dec-04 02:51     12 44 16.830174 -12 55 01.62214
 2018-Dec-04 02:52     12 44 16.952439 -12 55 01.92906
 2018-Dec-04 02:53     12 44 17.074693 -12 55 02.23604
 2018-Dec-04 02:54     12 44 17.196936 -12 55 02.54307
 2018-Dec-04 02:55     12 44 17.319168 -12 55 02.85016
 2018-Dec-04 02:56     12 44 17.441389 -12 55 03.15731
 2018-Dec-04 02:57     12 44 17.563600 -12 55 03.46451
 2018-Dec-04 02:58     12 44 17.685799 -12 55 03.77176
 2018-Dec-04 02:59     12 44 17.807987 -12 55 04.07908
 2018-Dec-04 03:00     12 44 17.930164 -12 55 04.38644
 2018-Dec-04 03:01     12 44 18.052330 -12 55 04.69387
 2018-Dec-04 03:02     12 44 18.174484 -12 55 05.00135
 2018-Dec-04 03:03     12 44 18.296627 -12 55 05.30888
 2018-Dec-04 03:04     12 44 18.418758 -12 55 05.61647
 2018-Dec-04 03:05     12 44 18.540878 -12 55 05.92411
 2018-Dec-04 03:06     12 44 18.662986 -12 55 06.23181
 2018-Dec-04 03:07     12 44 18.785083 -12 55 06.53956
 2018-Dec-04 03:08     12 44 18.907168 -12 55 06.84736
 2018-Dec-04 03:09     12 44 19.029241 -12 55 07.15522
 2018-Dec-04 03:10     12 44 19.151302 -12 55 07.46314
 2018-Dec-04 03:11     12 44 19.273351 -12 55 07.77110
 2018-Dec-04 03:12     12 44 19.395388 -12 55 08.07912
 2018-Dec-04 03:13     12 44 19.517413 -12 55 08.38720
 2018-Dec-04 03:14     12 44 19.639426 -12 55 08.69532
 2018-Dec-04 03:15     12 44 19.761427 -12 55 09.00350
 2018-Dec-04 03:16     12 44 19.883415 -12 55 09.31173
 2018-Dec-04 03:17     12 44 20.005391 -12 55 09.62002
 2018-Dec-04 03:18     12 44 20.127355 -12 55 09.92835
 2018-Dec-04 03:19     12 44 20.249306 -12 55 10.23674
 2018-Dec-04 03:20     12 44 20.371244 -12 55 10.54518
 2018-Dec-04 03:21     12 44 20.493170 -12 55 10.85367
 2018-Dec-04 03:22     12 44 20.615083 -12 55 11.16222
 2018-Dec-04 03:23     12 44 20.736984 -12 55 11.47081
 2018-Dec-04 03:24     12 44 20.858871 -12 55 11.77946
 2018-Dec-04 03:25     12 44 20.980746 -12 55 12.08816
 2018-Dec-04 03:26     12 44 21.102608 -12 55 12.39690
 2018-Dec-04 03:27     12 44 21.224457 -12 55 12.70570
 2018-Dec-04 03:28     12 44 21.346292 -12 55 13.01455
 2018-Dec-04 03:29     12 44 21.468115 -12 55 13.32345
 2018-Dec-04 03:30     12 44 21.589925 -12 55 13.63240
 2018-Dec-04 03:31     12 44 21.711721 -12 55 13.94140
 2018-Dec-04 03:32     12 44 21.833504 -12 55 14.25045
 2018-Dec-04 03:33     12 44 21.955273 -12 55 14.55955
 2018-Dec-04 03:34     12 44 22.077029 -12 55 14.86869
 2018-Dec-04 03:35     12 44 22.198772 -12 55 15.17789
 2018-Dec-04 03:36     12 44 22.320501 -12 55 15.48713
 2018-Dec-04 03:37     12 44 22.442216 -12 55 15.79643
 2018-Dec-04 03:38     12 44 22.563918 -12 55 16.10577
 2018-Dec-04 03:39     12 44 22.685605 -12 55 16.41516
 2018-Dec-04 03:40     12 44 22.807280 -12 55 16.72460
 2018-Dec-04 03:41     12 44 22.928940 -12 55 17.03409
 2018-Dec-04 03:42     12 44 23.050586 -12 55 17.34362
 2018-Dec-04 03:43     12 44 23.172218 -12 55 17.65320
 2018-Dec-04 03:44     12 44 23.293837 -12 55 17.96283
 2018-Dec-04 03:45     12 44 23.415441 -12 55 18.27250
 2018-Dec-04 03:46     12 44 23.537031 -12 55 18.58223
